LEGION 1                
1 59625U 24081A   24148.17344028  .00006688  00000+0  34747-3 0  9995
2 59625  97.5759 219.2708 0004995  91.4222 268.7583 15.16414664  3692
